ONEWEB-0412             
1 50489U 21132W   23324.07018933  .00000100  00000+0  22116-3 0  9995
2 50489  87.9221 162.4765 0001677  63.5063 296.6241 13.18688706 99031
ONEWEB-0413             
1 50490U 21132X   23324.07440965  .00000090  00000+0  19555-3 0  9992
2 50490  87.9219 162.4894 0001505  68.1748 291.9544 13.18684226 98984
ONEWEB-0414             
1 50491U 21132Y   23323.60546522  .00000042  00000+0  73139-4 0  9993
2 50491  87.9217 162.5694 0001840  72.3741 287.7592 13.18687751 98953
ONEWEB-0417             
1 50492U 21132Z   23323.91632682  .00000058  00000+0  11325-3 0  9996
2 50492  87.9159 162.5109 0001864  89.0027 271.1319 13.18688145 97689
ONEWEB-0418             
1 50493U 21132AA  23323.93002007  .00000103  00000+0  22801-3 0  9993
2 50493  87.9219 162.5062 0002144  90.4451 269.6927 13.18682980 97749
ONEWEB-0419             
1 50494U 21132AB  23323.86784616 -.00000130  00000+0 -36329-3 0  9991
2 50494  87.9216 162.5416 0001764  95.9291 264.2042 13.18686568 97654
ONEWEB-0420             
1 50495U 21132AC  23323.83411931 -.00000255  00000+0 -67947-3 0  9994
2 50495  87.9217 162.5564 0001230  75.0785 285.0483 13.18686407 97646
ONEWEB-0421             
1 50496U 21132AD  23323.82781567 -.00000056  00000+0 -17561-3 0  9995
2 50496  87.9161 162.5177 0001738  66.0724 294.0590 13.18686131 97688
